#aV2006  9 24  0  0   .00000000      96 DD+AD WGS84 FIT  NGA
## 1394       .00000000   900.00000000 54002  .0000000000000
+   29     1  2  3  4  5  6  7  8  9 10 11 13 14 15 16 17 18
+         19 20 21 22 23 24 25 26 27 28 29 30  0  0  0  0  0
+          0  0  0  0  0  0  0  0  0  0  0  0  0  0  0  0  0
+          0  0  0  0  0  0  0  0  0  0  0  0  0  0  0  0  0
+          0  0  0  0  0  0  0  0  0  0  0  0  0  0  0  0  0
++         0  0  0  0  0  0  0  0  0  0  0  0  0  0  0  0  0
++         0  0  0  0  0  0  0  0  0  0  0  0  0  0  0  0  0
++         0  0  0  0  0  0  0  0  0  0  0  0  0  0  0  0  0
++         0  0  0  0  0  0  0  0  0  0  0  0  0  0  0  0  0
++         0  0  0  0  0  0  0  0  0  0  0  0  0  0  0  0  0
%c cc cc ccc ccc cccc cccc cccc cccc ccccc ccccc ccccc ccccc
%c cc cc ccc ccc cccc cccc cccc cccc ccccc ccccc ccccc ccccc
%f  0.0000000  0.000000000  0.00000000000  0.000000000000000
%f  0.0000000  0.000000000  0.00000000000  0.000000000000000
%i    0    0    0    0      0      0      0      0         0
%i    0    0    0    0      0      0      0      0         0
/*      NGA, ST. LOUIS,MO.                                  
/*   EPHEMERIS COMPUTED FROM  3 DAYS OF DATA                
/* CCCCCCCCCCCCCCCCCCCCCCCCCCCCCCCCCCCCCCCCCCCCCCCCCCCCCCCCC
/* CCCCCCCCCCCCCCCCCCCCCCCCCCCCCCCCCCCCCCCCCCCCCCCCCCCCCCCCC
*  2006  9 24  4 30   .00000000                                                 
P  1 -15003.455359  21574.866517   3807.485484     78.496103                    
V  1  -4430.449764   2250.352948 -31930.908278       .023067                    
P  2   9768.580179 -13461.321080  20419.279960     37.987154                    
V  2  26182.010262   4656.009603  -9573.770377       .038306                    
P  3  -9517.879519  23829.132986  -6353.723590    162.117711                    
V  3  -7612.063296   4583.680205  29751.273695       .723822                    
P  4  21891.817319  -6610.656792  13761.032685    314.568418                    
V  4  16885.083286   4892.761506 -24085.795054       .054861                    
P  5 -12863.775305 -23291.795700   1272.344961    351.378225                    
V  5   2170.842695  -3204.509750 -31093.207931       .092551                    
P  6 -15856.951300  -4586.230821  21009.592331    592.082264                    
V  6  14862.112071 -21746.873217   6469.402107      -.052116                    
P  7 -18980.072469  16852.661214   8322.846514    523.065976                    
V  7   3092.712284 -10153.522600  28697.266592      -.047403                    
P  8  25944.256222     26.300121  -6794.974520    -80.716153                    
V  8   7855.242624   3366.184642  30228.368244      -.013213                    
P  9 -10869.713574 -14919.518933 -19759.421651     37.396273                    
V  9  23767.458896   1355.842648 -14275.389586       .015037                    
P 10   1198.290479 -22660.141459  13447.528848     90.118947                    
V 10   8192.809364  15431.456146  25393.579359       .005818                    
P 11  14570.930148  13821.289533 -17574.020985    351.830193                    
V 11 -22290.784791   2791.334184 -16084.462363       .019215                    
P 13  15390.786678   3166.708586  21314.370144     97.090977                    
V 13 -16889.186325  21329.450129   9026.800913       .034048                    
P 14 -20058.517863  13143.156583 -11267.444459     -4.931545                    
V 14   7622.673239 -12349.095899 -27866.059682       .007606                    
P 15 -25624.978430    219.923362  -7916.633930     -4.795126                    
V 15  -9034.472742  -4423.241529  29207.031433      -.045828                    
P 16  -4121.480825  20544.061913  16328.705625     75.901866                    
V 16  -9315.857031 -18505.563995  21148.765567       .033764                    
P 17  20200.703573 -12604.071095 -11665.489534     94.876953                    
V 17  -7196.034983  13215.939849 -26851.913663      -.011392                    
P 18 -16938.948573 -10384.178011 -17659.889082   -249.613544                    
V 18  -6116.437240 -21768.239194  18218.156554      -.008363                    
P 19  -3408.813537  20835.078615 -15965.714421     18.316795                    
V 19 -15083.200430  14036.762428  21469.916350       .032703                    
P 20  13762.310342  21900.062261   6012.530523    -22.366446                    
V 20    357.845204   8247.715264 -30387.679455       .002003                    
P 21 -26370.189604  -5087.571748    648.646495     54.049329                    
V 21   1208.644598  -2780.235081  30955.698080       .017908                    
P 22 -14598.554510   4556.497893 -21555.463609    136.683283                    
V 22  -9094.952794 -26245.891488    581.972673       .029071                    
P 23   7554.144236  13960.591520  21174.347214    138.097451                    
V 23 -17180.366670  20975.397407  -7851.845681       .002897                    
P 24  24606.642161  -2656.813302  10276.123257     38.438890                    
V 24  11981.812911   4600.404455 -27805.899375       .030819                    
P 25 -16161.107211  11929.967298  17848.004403    346.937265                    
V 25 -21752.126362  -2488.705679 -18301.512743       .210281                    
P 26   3802.833126 -20955.853032 -15889.811851   -266.373883                    
V 26  13666.186608 -14151.813336  23064.148243      -.149268                    
P 27  25922.082942   5165.251941   4553.378226     69.413928                    
V 27  -5146.243302   2084.294122  30849.744034       .019791                    
P 28  15831.107022    138.528182 -21080.582270     18.041990                    
V 28   9346.976976  25765.758249   6747.935669      -.009254                    
P 29   6797.597476 -22222.730535 -12345.093457    -20.024913                    
V 29  11317.224849 -11622.975650  26959.816585       .544478                    
P 30 -17214.883267 -15257.923155  13080.027660     11.017266                    
V 30  -4599.164963 -16664.767147 -24811.485192       .013364                    
EOF
